     2.100          NAVIGATION                              RINEX VERSION / TYPE
fic2rin                                 03/16/2017 00:17:10 PGM / RUN BY / DATE
                                                            END OF HEADER
 3 17  3 15 22  0  0.0 -.106849242002D-03  .682121026330D-12  .000000000000D+00
     .820000000000D+02 -.521562500000D+02  .440018328530D-08 -.200660868977D+01
    -.261887907982D-05  .516132684425D-03  .919401645660D-05  .515378247833D+04
     .338400000000D+06 -.894069671631D-07 -.967945233090D-01  .130385160446D-07
     .960168054831D+00  .202656250000D+03  .258362704061D+00 -.796640326124D-08
    -.343942898031D-09  .100000000000D+01  .194000000000D+04  .000000000000D+00
     .240000000000D+01  .000000000000D+00  .186264514923D-08  .820000000000D+02
     .331206000000D+06  .400000000000D+01
 4 17  3 15 22  0  0.0  .566244125366D-06  .454747350886D-12  .000000000000D+00
     .600000000000D+02 -.802812500000D+02  .533093634061D-08  .205660944204D+01
    -.422075390816D-05  .901996309403D-02  .870972871780D-05  .515373969460D+04
     .338400000000D+06 -.126659870148D-06  .306977503828D+01 -.147148966789D-06
     .982608625685D+00  .225468750000D+03  .880360646600D+00 -.783139763772D-08
    -.368586781690D-09  .100000000000D+01  .194000000000D+04  .000000000000D+00
     .340000000000D+01  .630000000000D+02 -.195577740669D-07  .600000000000D+02
     .331206000000D+06  .400000000000D+01
 5 17  3 15 22  0  0.0 -.556125305593D-04  .193267624127D-11  .000000000000D+00
     .112000000000D+03 -.505625000000D+02  .479948563213D-08  .174474280455D+01
    -.261142849922D-05  .491500122007D-02  .921450555325D-05  .515370501137D+04
     .338400000000D+06 -.596046447754D-07 -.112635847301D+00  .465661287308D-07
     .947137076930D+00  .196437500000D+03  .547783757278D+00 -.819712715753D-08
    -.417874549009D-09  .100000000000D+01  .194000000000D+04  .000000000000D+00
     .240000000000D+01  .000000000000D+00 -.107102096081D-07  .112000000000D+03
     .331206000000D+06  .400000000000D+01
 6 17  3 15 22  0  0.0  .325051136315D-03  .500222085975D-11  .000000000000D+00
     .114000000000D+03  .665625000000D+01  .476626996285D-08 -.962535345941D+00
     .379979610443D-06  .751636456698D-03  .420957803726D-05  .515362771988D+04
     .338400000000D+06  .353902578354D-07 -.114742552032D+01  .633299350739D-07
     .966275851919D+00  .303468750000D+03 -.127451274681D+01 -.830963184381D-08
     .667884962947D-10  .100000000000D+01  .194000000000D+04  .000000000000D+00
     .240000000000D+01  .000000000000D+00  .419095158577D-08  .114000000000D+03
     .331206000000D+06  .400000000000D+01
 7 17  3 15 22  0  0.0  .372835900635D-03 -.397903932026D-11  .000000000000D+00
     .370000000000D+02  .155625000000D+02  .485091634585D-08 -.180135578707D+01
     .659376382828D-06  .102154358756D-01  .316090881824D-05  .515359770012D+04
     .338400000000D+06  .128522515297D-06  .201869096384D+01 -.502914190292D-07
     .962762592709D+00  .317093750000D+03 -.261397873596D+01 -.835141929871D-08
     .213580325049D-09  .100000000000D+01  .194000000000D+04  .000000000000D+00
     .240000000000D+01  .000000000000D+00 -.111758708954D-07  .370000000000D+02
     .331206000000D+06  .400000000000D+01
 8 17  3 15 22  0  0.0 -.528953969479D-04 -.125055521494D-11  .000000000000D+00
     .780000000000D+02  .195937500000D+02  .431517974456D-08  .155656130880D+01
     .108592212200D-05  .257926515769D-02  .982731580734D-05  .515360387039D+04
     .338400000000D+06  .484287738800D-07 -.220196889277D+01 -.260770320892D-07
     .966066680966D+00  .187531250000D+03 -.803310417629D+00 -.790640076190D-08
     .186079179516D-09  .100000000000D+01  .194000000000D+04  .000000000000D+00
     .240000000000D+01  .000000000000D+00  .465661287308D-08  .780000000000D+02
     .331206000000D+06  .400000000000D+01
 9 17  3 15 22  0  0.0  .322845764458D-03  .773070496507D-11  .000000000000D+00
     .640000000000D+02  .631875000000D+02  .447554356721D-08  .107270527512D+01
     .333227217197D-05  .892391894013D-03  .970438122749D-05  .515367852402D+04
     .338400000000D+06 -.111758708954D-07  .939667910220D+00 -.130385160446D-07
     .953883243192D+00  .187156250000D+03  .180300653213D+01 -.806105006081D-08
     .313941648358D-09  .100000000000D+01  .194000000000D+04  .000000000000D+00
     .240000000000D+01  .000000000000D+00  .139698386192D-08  .640000000000D+02
     .331206000000D+06  .400000000000D+01
10 17  3 15 22  0  0.0 -.935299322009D-04  .568434188608D-11  .000000000000D+00
     .850000000000D+02 -.513750000000D+02  .445268547222D-08  .293614646869D+01
    -.256299972534D-05  .232343387324D-02  .951066613197D-05  .515367681503D+04
     .338400000000D+06  .260770320892D-07 -.100559628255D+00 -.614672899246D-07
     .960347149651D+00  .196406250000D+03 -.283879032966D+01 -.799783314185D-08
    -.353586156854D-09  .100000000000D+01  .194000000000D+04  .000000000000D+00
     .240000000000D+01  .000000000000D+00  .232830643654D-08  .850000000000D+02
     .331206000000D+06  .400000000000D+01
11 17  3 15 22  0  0.0 -.675163697451D-03 -.227373675443D-11  .000000000000D+00
     .590000000000D+02  .485000000000D+02  .602703676456D-08 -.180531177649D+01
     .275857746601D-05  .166265318403D-01  .490806996822D-05  .515370055199D+04
     .338400000000D+06  .165775418282D-06 -.153665128632D+01  .374391674995D-06
     .899658398361D+00  .251250000000D+03  .162631815968D+01 -.881143846035D-08
     .221794952936D-09  .100000000000D+01  .194000000000D+04  .000000000000D+00
     .240000000000D+01  .000000000000D+00 -.121071934700D-07  .590000000000D+02
     .331206000000D+06  .400000000000D+01
12 17  3 15 22  0  0.0  .386974308640D-03 -.568434188608D-12  .000000000000D+00
     .103000000000D+03 -.792187500000D+02  .389837666875D-08 -.241450942576D+01
    -.403076410294D-05  .656139745843D-02  .948645174503D-05  .515357165718D+04
     .338400000000D+06  .162050127983D-06  .310119920034D+01 -.633299350739D-07
     .989844854874D+00  .209468750000D+03  .810564260352D+00 -.773960810003D-08
    -.313941648358D-09  .100000000000D+01  .194000000000D+04  .000000000000D+00
     .240000000000D+01  .000000000000D+00 -.121071934700D-07  .103000000000D+03
     .331206000000D+06  .400000000000D+01
13 17  3 15 22  0  0.0 -.739796087146D-04 -.159161572810D-11  .000000000000D+00
     .720000000000D+02  .815937500000D+02  .424160525131D-08 -.779239474315D+00
     .413320958614D-05  .400236004498D-02  .970438122749D-05  .515369269180D+04
     .338400000000D+06 -.409781932831D-07  .106481473680D+01  .242143869400D-07
     .969899640442D+00  .200062500000D+03  .184025899054D+01 -.799283293357D-08
     .392159192147D-09  .100000000000D+01  .194000000000D+04  .000000000000D+00
     .240000000000D+01  .000000000000D+00 -.111758708954D-07  .720000000000D+02
     .331206000000D+06  .400000000000D+01
14 17  3 15 22  0  0.0 -.629019923508D-04 -.159161572810D-11  .000000000000D+00
     .740000000000D+02  .722500000000D+02  .439339728835D-08  .574396643640D+00
     .369735062122D-05  .877880665939D-02  .102799385786D-04  .515364031410D+04
     .338400000000D+06 -.113621354103D-06  .102583944219D+01  .279396772385D-07
     .962446938875D+00  .181093750000D+03 -.195848172491D+01 -.816926885427D-08
     .297512392585D-09  .100000000000D+01  .194000000000D+04  .000000000000D+00
     .240000000000D+01  .000000000000D+00 -.931322574615D-08  .740000000000D+02
     .331206000000D+06  .400000000000D+01
15 17  3 15 22  0  0.0 -.345645006746D-03 -.909494701773D-12  .000000000000D+00
     .510000000000D+02  .714687500000D+02  .505378193887D-08  .810181923786D-01
     .380165874958D-05  .909549836069D-02  .105239450932D-04  .515376843262D+04
     .338400000000D+06  .894069671631D-07  .879856805910D+00  .130385160446D-06
     .929574281643D+00  .160281250000D+03  .576309681131D+00 -.843392273531D-08
     .261796619166D-09  .100000000000D+01  .194000000000D+04  .000000000000D+00
     .240000000000D+01  .000000000000D+00 -.107102096081D-07  .510000000000D+02
     .331206000000D+06  .400000000000D+01
16 17  3 15 22  0  0.0  .289715826511D-04  .102318153949D-11  .000000000000D+00
     .420000000000D+02 -.742187500000D+02  .390944855851D-08  .189369636705D+01
    -.369735062122D-05  .929034245200D-02  .945664942265D-05  .515366663551D+04
     .338400000000D+06 -.154599547386D-06  .312002910359D+01  .987201929092D-07
     .990332875568D+00  .217343750000D+03  .413262127398D+00 -.777460955798D-08
    -.398945189097D-09  .100000000000D+01  .194000000000D+04  .000000000000D+00
     .240000000000D+01  .000000000000D+00 -.107102096081D-07  .420000000000D+02
     .331206000000D+06  .400000000000D+01
17 17  3 15 22  0  0.0 -.187784433365D-03  .136424205266D-11  .000000000000D+00
     .940000000000D+02  .331875000000D+02  .407516974718D-08  .876209856469D+00
     .173971056938D-05  .116638572654D-01  .103823840618D-04  .515359676933D+04
     .338400000000D+06 -.186264514923D-06 -.214539875034D+01 -.130385160446D-07
     .979234293953D+00  .194281250000D+03 -.185519236467D+01 -.797247494273D-08
     .182864759908D-09  .100000000000D+01  .194000000000D+04  .000000000000D+00
     .240000000000D+01  .000000000000D+00 -.107102096081D-07  .940000000000D+02
     .331206000000D+06  .400000000000D+01
18 17  3 15 22  0  0.0  .604817178100D-03  .227373675443D-11  .000000000000D+00
     .630000000000D+02 -.690625000000D+02  .510664128354D-08  .240204657502D+01
    -.360421836376D-05  .177801959217D-01  .880658626556D-05  .515374972916D+04
     .338400000000D+06  .249594449997D-06 -.140037874100D+00 -.171363353729D-06
     .925884138082D+00  .187687500000D+03 -.182383279921D+01 -.808319384033D-08
    -.396445084958D-09  .100000000000D+01  .194000000000D+04  .000000000000D+00
     .240000000000D+01  .000000000000D+00 -.111758708954D-07  .630000000000D+02
     .331206000000D+06  .400000000000D+01
